start=new Date('2022-05-27T00:00:00.000Z').valueOf();
sats=[{"OBJECT_TYPE":"PAYLOAD","EPHEMERIS_TYPE":"0","RA_OF_ASC_NODE":"36.4176","MEAN_ANOMALY":"298.5007","OBJECT_NAME":"STARLINK-1643","PERIOD":"95.592","CENTER_NAME":"EARTH","REF_FRAME":"TEME","TLE_LINE1":"1 46136U 20057V   22146.40510016  .00001459  00000-0  11677-3 0  9990","RCS_SIZE":"LARGE","ARG_OF_PERICENTER":"61.6136","REV_AT_EPOCH":"9771","LAUNCH_DATE":"2020-08-18","INCLINATION":"53.0554","CLASSIFICATION_TYPE":"U","MEAN_MOTION":"15.06407986","TLE_LINE2":"2 46136  53.0554  36.4176 0001523  61.6136 298.5007 15.06407986 97716","EPOCH":"2022-05-26T09:43:20.653824","DECAY_DATE":null,"PERIAPSIS":"546.134","COUNTRY_CODE":"US","FILE":"3466271","MEAN_MOTION_DDOT":"0.0000000000000","BSTAR":"0.00011677000000","ECCENTRICITY":"0.00015230","APOAPSIS":"548.244","NORAD_CAT_ID":"46136","OBJECT_ID":"2020-057V","MEAN_ELEMENT_THEORY":"SGP4","TIME_SYSTEM":"UTC","ELEMENT_SET_NO":"999","SEMIMAJOR_AXIS":"6925.324","GP_ID":"204624075","MEAN_MOTION_DOT":"0.00001459","SITE":"AFETR"},{"APOAPSIS":"548.581","ECCENTRICITY":"0.00019350","NORAD_CAT_ID":"46137","COUNTRY_CODE":"US","PERIAPSIS":"545.900","FILE":"3466271","MEAN_MOTION_DDOT":"0.0000000000000","BSTAR":"0.00008653900000","MEAN_MOTION_DOT":"0.00001007","SITE":"AFETR","SEMIMAJOR_AXIS":"6925.376","GP_ID":"204624325","OBJECT_ID":"2020-057W","TIME_SYSTEM":"UTC","ELEMENT_SET_NO":"999","MEAN_ELEMENT_THEORY":"SGP4","CENTER_NAME":"EARTH","PERIOD":"95.593","RCS_SIZE":"LARGE","TLE_LINE1":"1 46137U 20057W   22146.88889008  .00001007  00000-0  86539-4 0  9992","ARG_OF_PERICENTER":"46.5483","REF_FRAME":"TEME","RA_OF_ASC_NODE":"24.2605","MEAN_ANOMALY":"313.5667","OBJECT_TYPE":"PAYLOAD","EPHEMERIS_TYPE":"0","OBJECT_NAME":"STARLINK-1586","TLE_LINE2":"2 46137  53.0554  24.2605 0001935  46.5483 313.5667 15.06391190 97925","MEAN_MOTION":"15.06391190","EPOCH":"2022-05-26T21:20:00.102912","DECAY_DATE":null,"LAUNCH_DATE":"2020-08-18","REV_AT_EPOCH":"9792","CLASSIFICATION_TYPE":"U","INCLINATION":"53.0554"},{"CENTER_NAME":"EARTH","PERIOD":"95.593","ARG_OF_PERICENTER":"59.6063","TLE_LINE1":"1 46138U 20057X   22146.42261997  .00002122  00000-0  16139-3 0  9991","RCS_SIZE":"LARGE","REF_FRAME":"TEME","MEAN_ANOMALY":"300.5091","RA_OF_ASC_NODE":"46.3458","EPHEMERIS_TYPE":"0","OBJECT_TYPE":"PAYLOAD","OBJECT_NAME":"STARLINK-1590","TLE_LINE2":"2 46138  53.0563  46.3458 0001673  59.6063 300.5091 15.06389479 97570","MEAN_MOTION":"15.06389479","DECAY_DATE":null,"EPOCH":"2022-05-26T10:08:34.365408","LAUNCH_DATE":"2020-08-18","REV_AT_EPOCH":"9757","CLASSIFICATION_TYPE":"U","INCLINATION":"53.0563","ECCENTRICITY":"0.00016730","APOAPSIS":"548.404","NORAD_CAT_ID":"46138","FILE":"3466271","PERIAPSIS":"546.087","COUNTRY_CODE":"US","BSTAR":"0.00016139000000","MEAN_MOTION_DDOT":"0.0000000000000","SITE":"AFETR","MEAN_MOTION_DOT":"0.00002122","SEMIMAJOR_AXIS":"6925.381","GP_ID":"204625576","OBJECT_ID":"2020-057X","ELEMENT_SET_NO":"999","TIME_SYSTEM":"UTC","MEAN_ELEMENT_THEORY":"SGP4"},{"OBJECT_ID":"2020-057Z","ELEMENT_SET_NO":"999","TIME_SYSTEM":"UTC","MEAN_ELEMENT_THEORY":"SGP4","SITE":"AFETR","MEAN_MOTION_DOT":"-0.00001240","SEMIMAJOR_AXIS":"6925.363","GP_ID":"204625827","FILE":"3466271","PERIAPSIS":"545.967","COUNTRY_CODE":"US","BSTAR":"-0.00006433500000","MEAN_MOTION_DDOT":"0.0000000000000","APOAPSIS":"548.490","ECCENTRICITY":"0.00018220","NORAD_CAT_ID":"46140","LAUNCH_DATE":"2020-08-18","REV_AT_EPOCH":"9946","CLASSIFICATION_TYPE":"U","INCLINATION":"53.0549","TLE_LINE2":"2 46140  53.0549   4.4349 0001822  51.0874 309.0277 15.06395126 99469","MEAN_MOTION":"15.06395126","DECAY_DATE":null,"EPOCH":"2022-05-26T20:18:57.561120","MEAN_ANOMALY":"309.0277","RA_OF_ASC_NODE":"4.4349","EPHEMERIS_TYPE":"0","OBJECT_TYPE":"PAYLOAD","OBJECT_NAME":"STARLINK-1594","CENTER_NAME":"EARTH","PERIOD":"95.592","TLE_LINE1":"1 46140U 20057Z   22146.84649955 -.00001240  00000-0 -64335-4 0  9998","ARG_OF_PERICENTER":"51.0874","RCS_SIZE":"LARGE","REF_FRAME":"TEME"},{"PERIOD":"95.592","CENTER_NAME":"EARTH","TLE_LINE1":"1 46141U 20057AA  22146.89072788  .00000282  00000-0  37836-4 0  9997","RCS_SIZE":"LARGE","ARG_OF_PERICENTER":"64.1135","REF_FRAME":"TEME","EPHEMERIS_TYPE":"0","OBJECT_TYPE":"PAYLOAD","MEAN_ANOMALY":"296.0003","RA_OF_ASC_NODE":"4.2350","OBJECT_NAME":"STARLINK-1596","MEAN_MOTION":"15.06395366","TLE_LINE2":"2 46141  53.0551   4.2350 0001448  64.1135 296.0003 15.06395366 98201","DECAY_DATE":null,"EPOCH":"2022-05-26T21:22:38.888832","REV_AT_EPOCH":"9820","LAUNCH_DATE":"2020-08-18","CLASSIFICATION_TYPE":"U","INCLINATION":"53.0551","APOAPSIS":"548.231","ECCENTRICITY":"0.00014480","NORAD_CAT_ID":"46141","FILE":"3466271","PERIAPSIS":"546.225","COUNTRY_CODE":"US","BSTAR":"0.00003783600000","MEAN_MOTION_DDOT":"0.0000000000000","SEMIMAJOR_AXIS":"6925.363","GP_ID":"204624575","SITE":"AFETR","MEAN_MOTION_DOT":"0.00000282","OBJECT_ID":"2020-057AA","MEAN_ELEMENT_THEORY":"SGP4","ELEMENT_SET_NO":"999","TIME_SYSTEM":"UTC"},{"SITE":"AFETR","MEAN_MOTION_DOT":"0.00006247","SEMIMAJOR_AXIS":"6925.324","GP_ID":"204624825","OBJECT_ID":"2020-057AB","ELEMENT_SET_NO":"999","TIME_SYSTEM":"UTC","MEAN_ELEMENT_THEORY":"SGP4","APOAPSIS":"548.494","ECCENTRICITY":"0.00018840","NORAD_CAT_ID":"46142","FILE":"3466271","PERIAPSIS":"545.885","COUNTRY_CODE":"US","BSTAR":"0.00043782000000","MEAN_MOTION_DDOT":"0.0000000000000","TLE_LINE2":"2 46142  53.0550  44.4625 0001884  60.3948 299.7229 15.06407873 97639","MEAN_MOTION":"15.06407873","DECAY_DATE":null,"EPOCH":"2022-05-26T20:13:39.117504","LAUNCH_DATE":"2020-08-18","REV_AT_EPOCH":"9763","CLASSIFICATION_TYPE":"U","INCLINATION":"53.0550","CENTER_NAME":"EARTH","PERIOD":"95.592","TLE_LINE1":"1 46142U 20057AB  22146.84281386  .00006247  00000-0  43782-3 0  9992","RCS_SIZE":"LARGE","ARG_OF_PERICENTER":"60.3948","REF_FRAME":"TEME","MEAN_ANOMALY":"299.7229","RA_OF_ASC_NODE":"44.4625","EPHEMERIS_TYPE":"0","OBJECT_TYPE":"PAYLOAD","OBJECT_NAME":"STARLINK-1597"},{"LAUNCH_DATE":"2020-08-18","REV_AT_EPOCH":"8618","INCLINATION":"53.0571","CLASSIFICATION_TYPE":"U","TLE_LINE2":"2 46144  53.0571  24.0307 0001509  69.5175 290.5976 15.06394228 86187","MEAN_MOTION":"15.06394228","DECAY_DATE":null,"EPOCH":"2022-05-26T22:34:18.363648","MEAN_ANOMALY":"290.5976","RA_OF_ASC_NODE":"24.0307","EPHEMERIS_TYPE":"0","OBJECT_TYPE":"PAYLOAD","OBJECT_NAME":"STARLINK-1606","CENTER_NAME":"EARTH","PERIOD":"95.593","TLE_LINE1":"1 46144U 20057AD  22146.94049032  .00000741  00000-0  68679-4 0  9991","RCS_SIZE":"LARGE","ARG_OF_PERICENTER":"69.5175","REF_FRAME":"TEME","OBJECT_ID":"2020-057AD","ELEMENT_SET_NO":"999","TIME_SYSTEM":"UTC","MEAN_ELEMENT_THEORY":"SGP4","SITE":"AFETR","MEAN_MOTION_DOT":"0.00000741","GP_ID":"204625077","SEMIMAJOR_AXIS":"6925.366","FILE":"3466271","PERIAPSIS":"546.186","COUNTRY_CODE":"US","BSTAR":"0.00006867900000","MEAN_MOTION_DDOT":"0.0000000000000","APOAPSIS":"548.276","ECCENTRICITY":"0.00015090","NORAD_CAT_ID":"46144"},{"LAUNCH_DATE":"2020-08-18","REV_AT_EPOCH":"9758","INCLINATION":"53.0571","CLASSIFICATION_TYPE":"U","TLE_LINE2":"2 46146  53.0571  46.1858 0001857  54.3075 305.8087 15.06392734 97581","MEAN_MOTION":"15.06392734","EPOCH":"2022-05-26T10:56:20.318208","DECAY_DATE":null,"RA_OF_ASC_NODE":"46.1858","MEAN_ANOMALY":"305.8087","OBJECT_TYPE":"PAYLOAD","EPHEMERIS_TYPE":"0","OBJECT_NAME":"STARLINK-1608","CENTER_NAME":"EARTH","PERIOD":"95.593","TLE_LINE1":"1 46146U 20057AF  22146.45579072  .00002592  00000-0  19288-3 0  9998","REF_FRAME":"TEME","RCS_SIZE":"LARGE","ARG_OF_PERICENTER":"54.3075","OBJECT_ID":"2020-057AF","TIME_SYSTEM":"UTC","ELEMENT_SET_NO":"999","MEAN_ELEMENT_THEORY":"SGP4","MEAN_MOTION_DOT":"0.00002592","SITE":"AFETR","SEMIMAJOR_AXIS":"6925.371","GP_ID":"204625328","COUNTRY_CODE":"US","PERIAPSIS":"545.950","FILE":"3466271","MEAN_MOTION_DDOT":"0.0000000000000","BSTAR":"0.00019288000000","APOAPSIS":"548.522","ECCENTRICITY":"0.00018570","NORAD_CAT_ID":"46146"},{"MEAN_MOTION_DDOT":"0.0000000000000","BSTAR":"0.00015615000000","COUNTRY_CODE":"US","PERIAPSIS":"545.924","FILE":"3466271","NORAD_CAT_ID":"46147","APOAPSIS":"548.526","ECCENTRICITY":"0.00018790","MEAN_ELEMENT_THEORY":"SGP4","TIME_SYSTEM":"UTC","ELEMENT_SET_NO":"999","OBJECT_ID":"2020-057AG","SEMIMAJOR_AXIS":"6925.360","GP_ID":"204624076","MEAN_MOTION_DOT":"0.00002045","SITE":"AFETR","OBJECT_NAME":"STARLINK-1611","OBJECT_TYPE":"PAYLOAD","EPHEMERIS_TYPE":"0","RA_OF_ASC_NODE":"46.2809","MEAN_ANOMALY":"304.6122","TLE_LINE1":"1 46147U 20057AG  22146.43736089  .00002045  00000-0  15615-3 0  9993","ARG_OF_PERICENTER":"55.5044","RCS_SIZE":"LARGE","REF_FRAME":"TEME","PERIOD":"95.592","CENTER_NAME":"EARTH","CLASSIFICATION_TYPE":"U","INCLINATION":"53.0576","REV_AT_EPOCH":"9883","LAUNCH_DATE":"2020-08-18","EPOCH":"2022-05-26T10:29:47.980896","DECAY_DATE":null,"MEAN_MOTION":"15.06396213","TLE_LINE2":"2 46147  53.0576  46.2809 0001879  55.5044 304.6122 15.06396213 98839"},{"APOAPSIS":"548.443","ECCENTRICITY":"0.00017690","NORAD_CAT_ID":"46148","COUNTRY_CODE":"US","PERIAPSIS":"545.993","FILE":"3465674","MEAN_MOTION_DDOT":"0.0000000000000","BSTAR":"0.00010075000000","SEMIMAJOR_AXIS":"6925.353","GP_ID":"204593868","MEAN_MOTION_DOT":"0.00001219","SITE":"AFETR","OBJECT_ID":"2020-057AH","MEAN_ELEMENT_THEORY":"SGP4","TIME_SYSTEM":"UTC","ELEMENT_SET_NO":"999","PERIOD":"95.592","CENTER_NAME":"EARTH","TLE_LINE1":"1 46148U 20057AH  22146.37654761  .00001219  00000-0  10075-3 0  9990","RCS_SIZE":"LARGE","REF_FRAME":"TEME","ARG_OF_PERICENTER":"53.9525","OBJECT_TYPE":"PAYLOAD","EPHEMERIS_TYPE":"0","RA_OF_ASC_NODE":"26.5579","MEAN_ANOMALY":"306.1627","OBJECT_NAME":"STARLINK-1616","MEAN_MOTION":"15.06398615","TLE_LINE2":"2 46148  53.0584  26.5579 0001769  53.9525 306.1627 15.06398615 98507","EPOCH":"2022-05-26T09:02:13.713504","DECAY_DATE":null,"REV_AT_EPOCH":"9850","LAUNCH_DATE":"2020-08-18","INCLINATION":"53.0584","CLASSIFICATION_TYPE":"U"}];
